[{"OBJECT_NAME":"STARLINK-4394","OBJECT_ID":"2022-099C","EPOCH":"2026-03-09T21:11:02.458176","MEAN_MOTION":15.05649111,"ECCENTRICITY":0.00012135,"INCLINATION":97.6021,"RA_OF_ASC_NODE":191.4652,"ARG_OF_PERICENTER":230.8564,"MEAN_ANOMALY":129.2555,"EPHEMERIS_TYPE":0,"CLASSIFICATION_TYPE":"U","NORAD_CAT_ID":53467,"ELEMENT_SET_NO":999,"REV_AT_EPOCH":19607,"BSTAR":0.00045067952,"MEAN_MOTION_DOT":6.448e-5,"MEAN_MOTION_DDOT":0},{"OBJECT_NAME":"COSMOS 886 DEB","OBJECT_ID":"1976-126G","EPOCH":"2026-03-09T21:59:29.306688","MEAN_MOTION":13.32355162,"ECCENTRICITY":0.08528217,"INCLINATION":65.8124,"RA_OF_ASC_NODE":295.6076,"ARG_OF_PERICENTER":74.5612,"MEAN_ANOMALY":294.791,"EPHEMERIS_TYPE":0,"CLASSIFICATION_TYPE":"U","NORAD_CAT_ID":9650,"ELEMENT_SET_NO":999,"REV_AT_EPOCH":34173,"BSTAR":0.00067968691,"MEAN_MOTION_DOT":2.762e-5,"MEAN_MOTION_DDOT":0}]
